{
  "type": "FeatureCollection",
  "features": [
    {
      "type": "Feature",
      "properties": {
        "norad_id": 66482,
        "name": "STARLINK-35648",
        "group": "last-30-days",
        "lat": 36.42594843480543,
        "lon": -167.4822287134913,
        "alt_km": 409.28404880487415,
        "timestamp": "2025-12-13T18:50:03.171801+00:00",
        "meta_object_name": "STARLINK-35648",
        "meta_object_id": "2025-262AC",
        "meta_epoch": "2025-12-13T05:57:19.881792",
        "meta_mean_motion": 15.50679681,
        "meta_eccentricity": 0.00011334,
        "meta_inclination": 42.9979,
        "meta_ra_of_asc_node": 68.0303,
        "meta_arg_of_pericenter": 272.6819,
        "meta_mean_anomaly": 87.3911,
        "meta_ephemeris_type": 0,
        "meta_classification_type": "U",
        "meta_norad_cat_id": 66482,
        "meta_element_set_no": 999,
        "meta_rev_at_epoch": 548,
        "meta_bstar": 0.0018845871,
        "meta_mean_motion_dot": 0.00112218,
        "meta_mean_motion_ddot": 0,
        "tle_line1": "1 66482U 25262AC  25347.24814678  .00112218  00000+0  18846-2 0  9997",
        "tle_line2": "2 66482  42.9979  68.0303 0001133 272.6819  87.3911 15.50679681  5485"
      },
      "geometry": {
        "type": "Point",
        "coordinates": [
          -167.4822287134913,
          36.42594843480543
        ]
      }
    },
    {
      "type": "Feature",
      "properties": {
        "norad_id": 66483,
        "name": "STARLINK-35654",
        "group": "last-30-days",
        "lat": 35.58735828810982,
        "lon": -165.2938328099327,
        "alt_km": 409.04951690187227,
        "timestamp": "2025-12-13T18:50:03.171812+00:00",
        "meta_object_name": "STARLINK-35654",
        "meta_object_id": "2025-262AD",
        "meta_epoch": "2025-12-13T05:56:50.240544",
        "meta_mean_motion": 15.50687936,
        "meta_eccentricity": 6.952e-05,
        "meta_inclination": 42.9958,
        "meta_ra_of_asc_node": 68.0274,
        "meta_arg_of_pericenter": 270.6182,
        "meta_mean_anomaly": 89.4599,
        "meta_ephemeris_type": 0,
        "meta_classification_type": "U",
        "meta_norad_cat_id": 66483,
        "meta_element_set_no": 999,
        "meta_rev_at_epoch": 564,
        "meta_bstar": 0.0022001817,
        "meta_mean_motion_dot": 0.00131431,
        "meta_mean_motion_ddot": 0,
        "tle_line1": "1 66483U 25262AD  25347.24780371  .00131431  00000+0  22002-2 0  9997",
        "tle_line2": "2 66483  42.9958  68.0274 0000695 270.6182  89.4599 15.50687936  5648"
      },
      "geometry": {
        "type": "Point",
        "coordinates": [
          -165.2938328099327,
          35.58735828810982
        ]
      }
    },
    {
      "type": "Feature",
      "properties": {
        "norad_id": 66484,
        "name": "STARLINK-35371",
        "group": "last-30-days",
        "lat": 34.91352068448584,
        "lon": -163.6196406564671,
        "alt_km": 410.36914383002477,
        "timestamp": "2025-12-13T18:50:03.171822+00:00",
        "meta_object_name": "STARLINK-35371",
        "meta_object_id": "2025-262AE",
        "meta_epoch": "2025-12-12T16:01:32.219328",
        "meta_mean_motion": 15.50574998,
        "meta_eccentricity": 0.00014167,
        "meta_inclination": 43.0018,
        "meta_ra_of_asc_node": 71.4158,
        "meta_arg_of_pericenter": 278.2184,
        "meta_mean_anomaly": 81.8515,
        "meta_ephemeris_type": 0,
        "meta_classification_type": "U",
        "meta_norad_cat_id": 66484,
        "meta_element_set_no": 999,
        "meta_rev_at_epoch": 555,
        "meta_bstar": 7.4960958e-05,
        "meta_mean_motion_dot": 4.058e-05,
        "meta_mean_motion_ddot": 0,
        "tle_line1": "1 66484U 25262AE  25346.66773402  .00004058  00000+0  74961-4 0  9997",
        "tle_line2": "2 66484  43.0018  71.4158 0001416 278.2184  81.8515 15.50574998  5552"
      },
      "geometry": {
        "type": "Point",
        "coordinates": [
          -163.6196406564671,
          34.91352068448584
        ]
      }
    },
    {
      "type": "Feature",
      "properties": {
        "norad_id": 66485,
        "name": "STARLINK-34774",
        "group": "last-30-days",
        "lat": -29.802496509502685,
        "lon": -22.683528173530892,
        "alt_km": 446.3060002039538,
        "timestamp": "2025-12-13T18:50:03.171833+00:00",
        "meta_object_name": "STARLINK-34774",
        "meta_object_id": "2025-263A",
        "meta_epoch": "2025-12-13T06:00:02.000160",
        "meta_mean_motion": 15.40740464,
        "meta_eccentricity": 0.00020009,
        "meta_inclination": 43.0001,
        "meta_ra_of_asc_node": 122.4723,
        "meta_arg_of_pericenter": 284.7964,
        "meta_mean_anomaly": 212.5556,
        "meta_ephemeris_type": 0,
        "meta_classification_type": "U",
        "meta_norad_cat_id": 66485,
        "meta_element_set_no": 999,
        "meta_rev_at_epoch": 571,
        "meta_bstar": -0.0026327416,
        "meta_mean_motion_dot": -0.00108877,
        "meta_mean_motion_ddot": 0,
        "tle_line1": "1 66485U 25263A   25347.25002315 -.00108877  00000+0 -26327-2 0  9990",
        "tle_line2": "2 66485  43.0001 122.4723 0002000 284.7964 212.5556 15.40740464  5716"
      },
      "geometry": {
        "type": "Point",
        "coordinates": [
          -22.683528173530892,
          -29.802496509502685
        ]
      }
    },
    {
      "type": "Feature",
      "properties": {
        "norad_id": 66486,
        "name": "STARLINK-34844",
        "group": "last-30-days",
        "lat": 3.0081445624847976,
        "lon": 122.2880237108997,
        "alt_km": 413.3304552305117,
        "timestamp": "2025-12-13T18:50:03.171844+00:00",
        "meta_object_name": "STARLINK-34844",
        "meta_object_id": "2025-263B",
        "meta_epoch": "2025-12-13T01:48:39.674880",
        "meta_mean_motion": 15.50626513,
        "meta_eccentricity": 8.111e-05,
        "meta_inclination": 43.0008,
        "meta_ra_of_asc_node": 123.2058,
        "meta_arg_of_pericenter": 5.4819,
        "meta_mean_anomaly": 354.605,
        "meta_ephemeris_type": 0,
        "meta_classification_type": "U",
        "meta_norad_cat_id": 66486,
        "meta_element_set_no": 999,
        "meta_rev_at_epoch": 556,
        "meta_bstar": 0.0016487678,
        "meta_mean_motion_dot": 0.00097765,
        "meta_mean_motion_ddot": 0,
        "tle_line1": "1 66486U 25263B   25347.07545920  .00097765  00000+0  16488-2 0  9993",
        "tle_line2": "2 66486  43.0008 123.2058 0000811   5.4819 354.6050 15.50626513  5568"
      },
      "geometry": {
        "type": "Point",
        "coordinates": [
          122.2880237108997,
          3.0081445624847976
        ]
      }
    },
    {
      "type": "Feature",
      "properties": {
        "norad_id": 66487,
        "name": "STARLINK-34733",
        "group": "last-30-days",
        "lat": -29.5141423590674,
        "lon": 81.76960265886918,
        "alt_km": 446.6457739973248,
        "timestamp": "2025-12-13T18:50:03.171855+00:00",
        "meta_object_name": "STARLINK-34733",
        "meta_object_id": "2025-263C",
        "meta_epoch": "2025-12-13T06:00:02.000160",
        "meta_mean_motion": 15.40989287,
        "meta_eccentricity": 0.00014814,
        "meta_inclination": 43,
        "meta_ra_of_asc_node": 122.2606,
        "meta_arg_of_pericenter": 270.9148,
        "meta_mean_anomaly": 313.3948,
        "meta_ephemeris_type": 0,
        "meta_classification_type": "U",
        "meta_norad_cat_id": 66487,
        "meta_element_set_no": 999,
        "meta_rev_at_epoch": 571,
        "meta_bstar": -0.012391876,
        "meta_mean_motion_dot": -0.00490706,
        "meta_mean_motion_ddot": 0,
        "tle_line1": "1 66487U 25263C   25347.25002315 -.00490706  00000+0 -12392-1 0  9993",
        "tle_line2": "2 66487  43.0000 122.2606 0001481 270.9148 313.3948 15.40989287  5711"
      },
      "geometry": {
        "type": "Point",
        "coordinates": [
          81.76960265886918,
          -29.5141423590674
        ]
      }
    },
    {
      "type": "Feature",
      "properties": {
        "norad_id": 66488,
        "name": "STARLINK-35515",
        "group": "last-30-days",
        "lat": 5.710692936146722,
        "lon": 125.20601036810045,
        "alt_km": 413.0671286465331,
        "timestamp": "2025-12-13T18:50:03.171866+00:00",
        "meta_object_name": "STARLINK-35515",
        "meta_object_id": "2025-263D",
        "meta_epoch": "2025-12-13T01:47:40.130592",
        "meta_mean_motion": 15.50632968,
        "meta_eccentricity": 9.909e-05,
        "meta_inclination": 42.9998,
        "meta_ra_of_asc_node": 123.2003,
        "meta_arg_of_pericenter": 287.5067,
        "meta_mean_anomaly": 72.5685,
        "meta_ephemeris_type": 0,
        "meta_classification_type": "U",
        "meta_norad_cat_id": 66488,
        "meta_element_set_no": 999,
        "meta_rev_at_epoch": 561,
        "meta_bstar": 0.0026570283,
        "meta_mean_motion_dot": 0.00159046,
        "meta_mean_motion_ddot": 0,
        "tle_line1": "1 66488U 25263D   25347.07477003  .00159046  00000+0  26570-2 0  9995",
        "tle_line2": "2 66488  42.9998 123.2003 0000990 287.5067  72.5685 15.50632968  5619"
      },
      "geometry": {
        "type": "Point",
        "coordinates": [
          125.20601036810045,
          5.710692936146722
        ]
      }
    }
  ]
}